name,description,address,phone,website,email,tags,monday,tuesday,wednesday,thursday,friday,saturday,sunday,image_url,facebook,instagram,twitter,lat,lng,extra,extra2,extra3
"Unum/Colonial Life",,"2 Mount Royal Avenue, Suite 2-450, Marlborough, MA  01752",,,,,,,,,,,,,,,,42.340427759262,-71.578556667817,,,
"Unum/Colonial Life",,"Six Concourse Parkway, Suite 2700, Atlanta, GA 30328",,,,,,,,,,,,,,,,33.777403,-84.405086,,,
"Unum/Colonial Life",,"10 Bank Street, Suite 630, White Plains, NY 10606",,,,,,,,,,,,,,,,41.02973,-73.77393,,,
"Unum/Colonial Life",,"Zenith Ridge II -Southpointe 2400 Ansys Drive Suite 401, Canonsburg, PA  15317",,,,,,,,,,,,,,,,40.273005985782,-80.16907300808,,,
"Unum/Colonial Life",,"7650 Edinborough Way, Suite 245, Edina, MN 55435",,,,,,,,,,,,,,,,44.863336,-93.324583,,,
"Unum/Colonial Life",,"11757 Katy Freeway, Suite 450, Houston, TX  77043",,,,,,,,,,,,,,,,29.782831999372,-95.593043032844,,,
"Unum/Colonial Life",,"800 N. Magnolia Avenue, Suite 1600, Orlando, Florida 32803",,,,,,,,,,,,,,,,28.555428007876,-81.377512021632,,,
"Unum/Colonial Life",,"2709 Water Ridge Parkway, Suite 150, Charlotte, NC 28217",,,,,,,,,,,,,,,,35.188556,-80.925518,,,
"Unum/Colonial Life",,"1225 Franklin Ave, Suite 250, Garden City, NY 11530",,,,,,,,,,,,,,,,40.733787,-73.635348,,,
"Unum/Colonial Life",,"7480 Halcyon Pointe Drive, Suite 102, Montgomery, AL  36117",,,,,,,,,,,,,,,,32.363705985417,-86.166225991289,,,
"Unum/Colonial Life",,"6 Cadillac Drive, Suite 190, Brentwood, TN 37027",,,,,,,,,,,,,,,,36.035425,-86.797869,,,
"Unum/Colonial Life",,"5600 Blazer Parkway, Suite 350, Dublin, OH 43017",,,,,,,,,,,,,,,,40.079295,-83.129955,,,
"Unum/Colonial Life",,"145 River Landing Dr., Unit 203, Daniel Island, SC 29492",,,,,,,,,,,,,,,,32.857081,-79.905746,,,
"Unum/Colonial Life",,"8888 Keystone Crossing #120, Indianapolis, IN 46240",,,,,,,,,,,,,,,,39.91686,-86.108785,,,
"Unum/Colonial Life",,"3000 Bayport Drive, Suite 910, Tampa, FL  33607",,,,,,,,,,,,,,,,27.966287000089,-82.549930979754,,,
"Unum/Colonial Life",,"7251 West Lake Mead Blvd., Suite 400,  Las Vegas, NV 89128",,,,,,,,,,,,,,,,36.194684,-115.250043,,,
"Unum/Colonial Life",,"800 Woodlands Parkway, Suite 206, Ridgeland, MS  39157",,,,,,,,,,,,,,,,32.400223003887,-90.112470011279,,,
"Unum/Colonial Life",,"5850 Waterloo Road, Suite 230, Columbia, MD  21045",,,,,,,,,,,,,,,,39.208356006634,-76.799466962367,,,
"Unum/Colonial Life",,"1701 Centerview Drive, Suite 300, Redding Building, Little Rock, AR 72211",,,,,,,,,,,,,,,,34.738136,-92.398834,,,
"Unum/Colonial Life",,"301 E. Ocean Blvd., Suite 2000, Long Beach, CA 90802",,,,,,,,,,,,,,,,33.767482,-118.188942,,,
"Unum/Colonial Life",,"655 N. Central Avenue, Suite 910, Glendale, CA 91203",,,,,,,,,,,,,,,,34.155581,-118.259247,,,
"Unum/Colonial Life",,"Two City Place Drive, Suite 430, St. Louis, MO  63141",,,,,,,,,,,,,,,,38.673127986804,-90.441457028706,,,
"Unum/Colonial Life",,"Woodlawn II Office Building, 297 N. Hubbards Lane, Suite 201, Louisville, KY 40207",,,,,,,,,,,,,,,,38.181164,-85.756966,,,
"Unum/Colonial Life",,"707 S Grady Way, Suite 550, Renton, WA  98057",,,,,,,,,,,,,,,,47.471779010944,-122.20919704168,,,
"Unum/Colonial Life",,"Regus Location, 14301 FNB Parkway, Suite 100, Omaha, NE 68154",,,,,,,,,,,,,,,,41.265139,-96.114445,,,
"Unum/Colonial Life",,"1901 S Bascom Ave., Suite 660, Campbell, CA 95008",,,,,,,,,,,,,,,,37.288658,-121.935492,,,
"Unum/Colonial Life",,"1095 Morris Avenue, Suite 410, Union, NJ 07083",,,,,,,,,,,,,,,,40.686163,-74.239679,,,
"Unum/Colonial Life",,"1301 Dove St.,  Suite 340, Newport Beach, CA  92660",,,,,,,,,,,,,,,,33.662131979904,-117.8667039973,,,
"Unum/Colonial Life",,"899 Cassatt Road, Berwyn, PA 19312",,,,,,,,,,,,,,,,40.063091,-75.459144,,,
"Unum/Colonial Life",,"10151 Deerwood Park Blvd, Building 100 Suite 250, Jacksonville, FL  32256",,,,,,,,,,,,,,,,30.241374992878,-81.549178008712,,,
"Unum/Colonial Life",,"1321 Ochsner Blvd, Suite 200, Covington, LA 70433",,,,,,,,,,,,,,,,30.452671,-90.14458,,,
"Unum/Colonial Life",,"10 N Martingale Road, Suite 400, Schaumburg, IL 60173",,,,,,,,,,,,,,,,42.025736,-88.032683,,,
"Unum/Colonial Life",,"7015 College Blvd., Suite 350, Overland Park, KS  66211",,,,,,,,,,,,,,,,38.925374992623,-94.664967029665,,,
"Unum/Colonial Life",,"101 E. Kennedy Blvd, Suite 3120, Tampa, FL  33602",,,,,,,,,,,,,,,,27.946869986107,-82.459089002786,,,
"Unum/Colonial Life",,"13520 Evening Creek Drive N, Suite 520, San Diego, CA  92128",,,,,,,,,,,,,,,,32.962805993372,-117.09364299527,,,
"Unum/Colonial Life",,"900 Washington Street, Suite 1050, Vancouver, WA 98660",,,,,,,,,,,,,,,,45.6284,-122.673276,,,
"Unum/Colonial Life",,"5215 N O'Connor Blvd, Suite 1800, Irving, TX 75039",,,,,,,,,,,,,,,,32.871176,-96.938279,,,
"Unum/Colonial Life",,"3 Summit Park Drive, Suite 375, Independence, OH 44131",,,,,,,,,,,,,,,,41.395436,-81.65659,,,
"Unum/Colonial Life",,"231 Salina Meadows Pkwy, Suite 175, Syracuse, NY 13212",,,,,,,,,,,,,,,,43.101665,-76.16237,,,
"Unum/Colonial Life",,"828 Bistline Dr, Suite 100, West Columbia, SC 29172-2753",,,,,,,,,,,,,,,,33.911717982922,-81.081698984411,,,
"Unum/Colonial Life",,"7887 E. Belleview Avenue, Suite 1200, Denver, CO 80111",,,,,,,,,,,,,,,,39.625143,-104.897339,,,
"Unum/Colonial Life",,"1401 Willow Pass, Suite 800, Concord, CA  94520",,,,,,,,,,,,,,,,37.97033599949,-122.05088703057,,,
"Unum/Colonial Life",,"9385 Miller Lane, Garden Ridge, TX  78266",,,,,,,,,,,,,,,,29.653497012171,-98.301366035967,,,
"Unum/Colonial Life",,"2201 East Camelback Rd, Suite 320, Phoenix, AZ 85016",,,,,,,,,,,,,,,,33.508242,-112.033828,,,
"Unum/Colonial Life",,"2400 E. Commercial Blvd, Suite 1020, Fort Lauderdale, FL 33308",,,,,,,,,,,,,,,,26.188686,-80.114784,,,
"Unum/Colonial Life",,"9490 South 300 West, Suite 130, Sandy , UT 84070",,,,,,,,,,,,,,,,40.57893,-111.901597,,,
"Unum/Colonial Life",,"14000 Quail Springs Pkwy, Suite 5750, Oklahoma City, OK 73134",,,,,,,,,,,,,,,,35.611971,-97.575016,,,
"Unum/Colonial Life",,"5285 Meadows Road, Suite 370, Lake Oswego, OR 97035",,,,,,,,,,,,,,,,45.418315,-122.730706,,,
"Unum/Colonial Life",,"25800 Northwestern Highway, Suite 970, Southfield, MI  48075",,,,,,,,,,,,,,,,42.479149011187,-83.247518978663,,,
"Unum/Colonial Life",,"8251 Greensboro Drive, Suite 300, McLean, VA 22102",,,,,,,,,,,,,,,,38.921938,-77.229959,,,
"Unum/Colonial Life",,"5200 Blue Lagoon Drive, Suite 850, Miami, FL 33126",,,,,,,,,,,,,,,,25.781581,-80.280563,,,
"Unum/Colonial Life",,"Spaces 8000 Avalon Blvd, Suite 100, Alpharetta, GA",,,,,,,,,,,,,,,,34.070257993448,-84.272711986803,,,
"Unum/Colonial Life",,"1 Fountain Square, Chattanooga, TN 37402",,,,,,,,,,,,,,,,35.006681,-85.250042,,,
"Unum/Colonial Life",,"2211 Congress St., Portland, ME 04102",,,,,,,,,,,,,,,,43.652883,-70.326203,,,
"Unum/Colonial Life",,"1200 Colonial Life Blvd W, Columbia, SC 29210",,,,,,,,,,,,,,,,34.030887,-81.093204,,,
"Unum/Colonial Life",,"28 Southbridge Road Unit 103, Charlton MA 01507",,,,,,,,,,,,,,,,42.143197,-71.997629,,,
"Unum/Colonial Life",,"8485 Goodwood Blvd, Baton Rouge, LA 70806",,,,,,,,,,,,,,,,30.443301,-91.096578,,,
"Unum/Colonial Life",,"125 Summer Street. Suite 1300, Boston, MA 02110",,,,,,,,,,,,,,,,42.353123,-71.057423,,,
"Unum/Colonial Life",,"1699 King Street, Suite 100, Enfield, CT 06082",,,,,,,,,,,,,,,,41.937091,-72.602347,,,
"Unum/Colonial Life",,"Eastgate Square, 50 Square Drive, Suite 1000 Victor, NY 14564",,,,,,,,,,,,,,,,42.973715,-77.426906,,,
"Unum/Colonial Life",,"450 Lexington Avenue, New York, NY 10017",,,,,,,,,,,,,,,,40.753085,-73.975025,,,
"Unum/Colonial Life",,"1000 Continental Drive, Suite 650, King of Prussia, PA 19406",,,,,,,,,,,,,,,,40.081439,-75.398328,,,
"Unum/Colonial Life",,"8601 Robert Fulton Drive, Suite 110, Columbia, MD 21046",,,,,,,,,,,,,,,,39.174481,-76.810862,,,
"Unum/Colonial Life",,"3900 Westerre Parkway, Suite 300, Richmond, VA 23233",,,,,,,,,,,,,,,,37.64392,-77.578551,,,
"Unum/Colonial Life",,"6100 Fairview Road, Suite 750, Charlotte, NC 28210",,,,,,,,,,,,,,,,35.150448,-80.837609,,,
"Unum/Colonial Life",,"2321 Blue Ridge Road, Suite 201, Raleigh, NC 27607",,,,,,,,,,,,,,,,35.813021,-78.706073,,,
"Unum/Colonial Life",,"1 East Broward, Suite 801, Fort Lauderdale, FL 33301",,,,,,,,,,,,,,,,26.122826,-80.142795,,,
"Unum/Colonial Life",,"One Urban Centre, 4830 West Kennedy Blvd, Suite 270, Tampa, FL 33609",,,,,,,,,,,,,,,,27.882904,-82.491378,,,
"Unum/Colonial Life",,"3350 Players Club Parkway, Suite 350, Memphis, TN 38125",,,,,,,,,,,,,,,,35.057011,-89.782901,,,
"Unum/Colonial Life",,"2555 Meridian Blvd, Suite 150, Franklin, TN 37067",,,,,,,,,,,,,,,,35.951144,-86.809426,,,
"Unum/Colonial Life",,"500 West Monroe Street, Suite 2710, Chicago, IL 60661",,,,,,,,,,,,,,,,41.880938,-87.640434,,,
"Unum/Colonial Life",,"1200 North Mayfair Road, Suite 450, Milwaukee, WI 53226",,,,,,,,,,,,,,,,43.046598,-88.046242,,,
"Unum/Colonial Life",,"720 E Pete Rose Way, Suite 408, Cincinnati, OH 45202",,,,,,,,,,,,,,,,39.101885,-84.500139,,,
"Unum/Colonial Life",,"800 Yard Street, Suite 325, Columbus OH, 43212",,,,,,,,,,,,,,,,39.975616983127,-83.025221015804,,,
"Unum/Colonial Life",,"4001 West 114th Street, Suite 100, Leawood, KS 66211",,,,,,,,,,,,,,,,38.922895,-94.629701,,,
"Unum/Colonial Life",,"7733 Forsyth Blvd., Suite 350, Clayton, MO 63105",,,,,,,,,,,,,,,,38.650383,-90.335565,,,
"Unum/Colonial Life",,"408 South Lafayette Ave., Suite 200, Royal Oak, MI 48067",,,,,,,,,,,,,,,,42.486927,-83.148215,,,
"Unum/Colonial Life",,"2505 E Paris Avenue, SE, Suite 125, Grand Rapids, MI 49546",,,,,,,,,,,,,,,,42.918331,-85.569736,,,
"Unum/Colonial Life",,"1001 Liberty Avenue, Suite 745, Pittsburgh, PA 15222",,,,,,,,,,,,,,,,40.444577,-79.993995,,,
"Unum/Colonial Life",,"1777 Botelho Drive, Suite 250, Walnut Creek, CA 94596",,,,,,,,,,,,,,,,37.893199,-122.063515,,,
"Unum/Colonial Life",,"800 Bellevue Way NE Suite 500",,,,,,,,,,,,,,,,42.348213192939,-83.008053885966,,,
"Unum/Colonial Life",,"665 North Central Avenue, 9th Floor, Glendale, CA 91202",,,,,,,,,,,,,,,,34.15555,-118.258079,,,
"Unum/Colonial Life",,"4655 Executive Drive, Suite 810, San Diego, CA 92121",,,,,,,,,,,,,,,,32.876238,-117.20607,,,
"Unum/Colonial Life",,"842 West Sam Houston Parkway, North Suite 325, Houston, TX 77024",,,,,,,,,,,,,,,,29.780377,-95.56214,,,
"Unum/Colonial Life",,"816 Congress Ave, Suite 1680, Austin, TX 78701",,,,,,,,,,,,,,,,30.270585,-97.742331,,,
"Unum/Colonial Life",,"3900 N. Causeway Blvd, Suites 1268 & 1262, Metairie, LA 70002",,,,,,,,,,,,,,,,30.019439,-90.156235,,,
"Unum/Colonial Life",,"5840 Legacy Circle, Suite D200, Plano, TX 75024",,,,,,,,,,,,,,,,33.080925,-96.821967,,,
,,"521 Kenduskeag Avenue Apt 70 Bangor, ME, 04401",,,,,,,,,,,,,,,,44.819857,-68.791151,,,
,,"17 Whittier St Amesbury, MA, 01913",,,,,,,,,,,,,,,,42.85187,-70.935719,,,
"Mass Mutual",,"MassMutual 1295 State Street, Springfield, MA, 01111",,,,,,,,,,,,,,,,42.116039726937,-72.545457311229,,,
"PICS Middle School",,"PCIS, 117 Long Pond Road, Plymouth MA 02360",,,,,,,,,,,,,,,,41.886207,-70.638717,,,
,,"531 Hamilton Porter Road, Punxsutawney, PA 15767",,,,,,,,,,,,,,,,40.932168,-79.166737,,,
"Ellsworth Adult Education",,"248 State Street, 16B, Ellsworth, ME 04605",,,,,,,,,,,,,,,,44.551612,-68.429392,,,
MassMutual,,"1295 State Street, Facilities MI L009, Springfield, MA 01111",,,,,,,,,,,,,,,,42.11604,-72.545457,,,
,,"52 School Street, Gorham, ME 04038",,,,,,,,,,,,,,,,43.680993,-70.443976,,,
"Essex Middle School",,"60 Founders Road, Essex Junction, VT 05452",,,,,,,,,,,,,,,,44.499027,-73.058506,,,
,,"32 Circle Dire Casco, ME 04105",,,,,,,,,,,,,,,,43.940976,-70.527328,,,
,,"16 MANTER MILL RD, Londonderry NH 03053",,,,,,,,,,,,,,,,42.939039,-71.369641,,,
"York Hospital",,"1 Loving Kindness Way, York, ME 03909",,,,,,,,,,,,,,,,43.141768263138,-70.65202171118,,,
"Gardiner Library",,"152 Water St, Gardiner, ME 04345",,,,,,,,,,,,,,,,44.228807,-69.770821,,,
,,"Nobleboro, ME 04555",,,,,,,,,,,,,,,,44.07952,-69.48505,,,
ValleyCast,,"50 Douglas Road, Whinitsville, MA 01588",,,,,,,,,,,,,,,,42.109127,-71.665554,,,
"McArthur Library",,"270 Main St, Biddeford, ME 04005",,,,,,,,,,,,,,,,43.494503,-70.458131,,,
"APEX Youth Connection",,"45 Granite St, Biddeford, ME 04005",,,,,,,,,,,,,,,,43.484535,-70.454985,,,
"Biddeford APC",,"73 Bacon Street, 1st Floor, Biddeford, ME 04005",,,,,,,,,,,,,,,,43.490532,-70.450708,,,
"Biddeford Teen Center",,"550 Main St, Biddeford, ME 04005",,,,,,,,,,,,,,,,43.498137,-70.478343,,,
UNECOM,,"11 Hills Beach Road. Biddeford, ME 04005",,,,,,,,,,,,,,,,43.45872,-70.389045,,,
"UNE Office of Citizenship & Civic Engagement",,"11 Hills Beach Rd, Biddeford, ME 04005",,,,,,,,,,,,,,,,43.45872,-70.389045,,,
"Biddeford School Dept.",,"18 Maplewood Ave, Biddeford, ME 04005",,,,,,,,,,,,,,,,43.495545,-70.470982,,,
"Biddeford Primary School",,"320 Hill St, Biddeford, ME 04005",,,,,,,,,,,,,,,,43.475381,-70.469164,,,
"Biddeford Intermediate School",,"335 Hill St, Biddeford, ME 04005",,,,,,,,,,,,,,,,43.473466,-70.467121,,,
"Biddeford Middle School",,"25 Tiger Dr, Biddeford, ME 04005",,,,,,,,,,,,,,,,43.473446,-70.464821,,,
"Biddeford High School",,"10-20 Maplewood Ave, Biddeford, ME 04005",,,,,,,,,,,,,,,,43.495271,-70.471625,,,
"Service Works",,"Stillwater, ME 04489",,,,,,,,,,,,,,,,44.910384,-68.690173,,,
"Stoner & Co.",,"414 Hill St, Biddeford, ME 04005",,,,,,,,,,,,,,,,43.466156,-70.478911,,,
"PGM Accounting",,"265 Main St STE 202, Biddeford, ME 04005",,,,,,,,,,,,,,,,43.494021,-70.458089,,,
"City of Biddeford",,"Biddeford, ME 04005",,,,,,,,,,,,,,,,43.492125,-70.485368,,,
"Richard Martin Community Ctr.",,"189 Alfred St # 1, Biddeford, ME 04005",,,,,,,,,,,,,,,,43.487918,-70.459358,,,
Subcircle,,"97 Guinea Road Biddeford, Kennebunkport, ME 04005",,,,,,,,,,,,,,,,43.464198,-70.421417,,,
"Biddeford Pool Community Center",,"2 Yates St, Biddeford Pool, ME 04006",,,,,,,,,,,,,,,,43.444866,-70.353112,,,
"Magnus On Water",,"12 Water St, Biddeford, ME 04005",,,,,,,,,,,,,,,,43.492339,-70.450207,,,
"Albert D Lawton Intermediate School",,"104 Maple Street, Essex Junction, VT  05452",,,,,,,,,,,,,,,,44.486936016235,-73.098720001568,,,
"York Parks and Recreation",,"200 US-1 York, Maine 03909",,,,,,,,,,,,,,,,43.14200119936,-70.689846839637,,,
"Machias High school",,"1 Bulldog Ln, Machias, ME 04654",,,,,,,,,,,,,,,,44.713842,-67.469113,,,
"Jonesport-Beals High School",,"180 Snare Creek Ln, Jonesport, ME 04649",,,,,,,,,,,,,,,,44.557669,-67.613759,,,
"Sumner High School",,"2456 US-1, Sullivan, ME 04664",,,,,,,,,,,,,,,,44.511736,-68.166577,,,
"Narraguagas High School",,"1611 Main St, Harrington, ME 04643",,,,,,,,,,,,,,,,44.620025,-67.841551,,,
"Healthy Acadia (Machias) ",,"121 Court St A, Machias, ME 04654",,,,,,,,,,,,,,,,44.714905,-67.462495,,,
"Milbridge Library ",,"18 School St, Milbridge, ME 04658",,,,,,,,,,,,,,,,44.539325,-67.881179,,,
"Conners-Emerson School ",,"Eden St, Bar Harbor, ME 04609",,,,,,,,,,,,,,,,44.400095,-68.23148,,,
"Washington County Community College ",,"College Dr, Calais, ME 04619",,,,,,,,,,,,,,,,45.166057044567,-67.242725380701,,,
"Lubec Community ",,"44 South St, Lubec, ME 04652",,,,,,,,,,,,,,,,44.855143,-66.988242,,,
"Women for Healthy Rural Living ",,"24 School St, Milbridge, ME 04658",,,,,,,,,,,,,,,,44.539272,-67.880432,,,
"Maine Sea Coast Mission ",,"6 Old Firehouse Ln, Northeast Harbor, ME 04662",,,,,,,,,,,,,,,,44.293928,-68.289032,,,
"UMaine Machias ",,"116 Obrien Ave, Machias, ME 04654",,,,,,,,,,,,,,,,44.709996,-67.458244,,,
"Sterling College",,"16 Sterling Dr, Craftsbury Common, VT 05827",,,,,,,,,,,,,,,,44.652277,-72.382183,,,
"Craftsbury Outdoor Center",,"535 Lost Nation Rd, Craftsbury Common, VT 05827",,,,,,,,,,,,,,,,44.680368,-72.363511,,,
"Craftsbury Academy",,"1422 N Craftsbury Rd, Craftsbury Common, VT 05827",,,,,,,,,,,,,,,,44.654203,-72.381986,,,
"Craftsbury Elementary School",,"1422 North Craftsbury Road Craftsbury Common, Vermont 08527",,,,,,,,,,,,,,,,44.654305020652,-72.381736027255,,,
"Craftsbury Town Hall",,"85 S Craftsbury Rd, Craftsbury, VT 05826",,,,,,,,,,,,,,,,44.635151,-72.371916,,,
"United Church of Craftsbury",,"7 Church Ln, Craftsbury, VT 05827",,,,,,,,,,,,,,,,44.654297,-72.383913,,,
"Craftsbury Public Library",,"12 Church Ln, Craftsbury Common, VT 05827",,,,,,,,,,,,,,,,44.654336,-72.383382,,,
"Craftsbury Community Care Center",,"1784 E Craftsbury Rd, Craftsbury, VT 05826",,,,,,,,,,,,,,,,44.64067,-72.341647,,,
"Unum/Colonial Life",,"400 Berwyn Park, Suite 120, Berwyn, PA 19312",,,,,,,,,,,,,,,,40.063615855843,-75.458532425309,,,
"Darien Youth Center",,"25 Heights Road Darien, CT, 06820",,,,,,,,,,,,,,,,41.068897,-73.493449,,,
"Baywood - Aragon",,"380 Georgetown Avenue San Mateo, CA, 94402",,,,,,,,,,,,,,,,37.555088,-122.328337,,,
"Lewiston High School",,"156 East Avenue Lewiston, ME, 04240",,,,,,,,,,,,,,,,44.09318,-70.201924,,,
"Biddeford City Clerk",,"205 Main Street, Biddeford, ME 04005",,,,,,,,,,,,,,,,43.49343,-70.456417,,,
"George Stevens Academy ",,"23 Union St, Blue Hill, ME 04614",,,,,,,,,,,,,,,,44.413191,-68.589854,,,
"Dirigo Middle School ",,"45 School Street, Dixfield, ME, 04224",,,,,,,,,,,,,,,,44.543695,-70.452655,,,
"The Gemini Café ",,"96 Main St, Bethel, ME, 04217",,,,,,,,,,,,,,,,44.40771982279,-70.789042660403,,,
"Telstar Middle/High School ",,"284 Walkers Mills Rd , Bethel , ME , 04217",,,,,,,,,,,,,,,,44.418711557248,-70.765366717598,,,
"Dirigo High School ",,"145 Weld Street, Dixfield, ME , 04224",,,,,,,,,,,,,,,,44.540359836323,-70.452657439957,,,
"Agnes Gray Elementary",,"170 Main St, West Paris, ME 04289",,,,,,,,,,,,,,,,44.327204,-70.569531,,,
"Oxford County Mental Health Services ",,"150 Congress St, Rumford, ME, 04088",,,,,,,,,,,,,,,,44.546697225676,-70.545608303764,,,
"Downtown Rumford ",,"2 Plummer Hill Rd, Rumford, ME 04088",,,,,,,,,,,,,,,,44.181475,-70.716375,,,
"The University of Southern Maine",,"96 Falmouth St, Portland, ME 04103",,,,,,,,,,,,,,,,43.662225,-70.277623,,,
"Brewer High School    ",,"79 Parkway South, Brewer, ME 04412",,,,,,,,,,,,,,,,44.781808,-68.755466,,,
"Peak's Island","Tiny Hope Garden right off the ferry in Peaks Island, ME.","123 Peaks Rd, Peaks Island, ME",,,,,,,,,,,,,,,,43.65555,-70.19895,,,
"Easton High School Department","Hope Garden!","173 Center Road, Easton, ME 04740, United States",,,,,,,,,,,,,,,,46.642034,-67.903694,,,
"Greenwich High School","Hope Garden!","10 Hillside Road, GreenwichÊ, CT 06830, United States",,,,,,,,,,,,,,,,41.039862,-73.613191,,,
"Northern Light Mayo Hospital","Hope Garden!","897 West Main Street, Dover Foxcroft, ME 04426, United States",,,,,,,,,,,,,,,,45.187657,-69.237851,,,
"Healthy Oxford Hills","Hope Garden!","181 Main Street, NorwayÊ, ME 04268, United States",,,,,,,,,,,,,,,,44.209765,-70.532356,,,
PCIS,"Hope Garden!","117 Long Pond Road, PlymouthÊ, MA 02360, United States",,,,,,,,,,,,,,,,41.922626,-70.659159,,,
MassMutual,"Hope Garden!","1295 State Street, L009, Springfield, MA 01111, United States",,,,,,,,,,,,,,,,42.11604,-72.545457,,,
"Libby Memorial Library","Hope Garden!","27 Staples St, Old Orchard Beach, ME 04064, United States",,,,,,,,,,,,,,,,43.515732,-70.376656,,,
"Town of Old Orchard Beach","Hope Garden!","1 Portland Ave, Old Orchard Beach, ME 04064, United States",,,,,,,,,,,,,,,,43.517844,-70.377304,,,
"Lake Geneva Schools","Hope Garden!","208 E. South St., Lake Geneva, WI 53147, United States",,,,,,,,,,,,,,,,42.574438,-88.420981,,,
"Whitewater Schools","Hope Garden!","419 S. Elizabeth St., Whitewater, WI 53190, United States",,,,,,,,,,,,,,,,42.828374,-88.751633,,,
"Delevan-Darien High School","Hope Garden!","150 Cummings St., Delevan, WI 53115, United States",,,,,,,,,,,,,,,,42.631243,-88.660765,,,
"Fontana Elementary SchoolÊ","Hope Garden!","450 S. Main St., FontanaÊ, WI 53125, United States",,,,,,,,,,,,,,,,42.548473,-88.585211,,,
"Elkhorn Area High SchoolÊ","Hope Garden!","482 E. Geneva St., Elkhorn, WI 53121, United States",,,,,,,,,,,,,,,,42.671393,-88.531727,,,
"Walworth County Health and Human Services","Hope Garden!","1910 County Rd NN, Elkhorn, WI 53121, United States",,,,,,,,,,,,,,,,42.664648,-88.49494,,,
"Highland Elementary SchoolÊ","Hope Garden!","7720 Erie St, Sylvania, OH 43560, United States",,,,,,,,,,,,,,,,41.717966,-83.729376,,,
"UMA-Ellsworth Center","Hope Garden!","248 State Street, Ellsworth, ME 04605, United States",,,,,,,,,,,,,,,,44.551612,-68.429392,,,
"Ellsworth Adult Education","Hope Garden!","206 Village Road, SteubenÊ, ME 04680, United States",,,,,,,,,,,,,,,,44.505268,-67.975691,,,
"Reach 1 Teach 1 Love 1","Hope Garden!","6 Tokenel Road, WindhamÊ, NH 03087, United States",,,,,,,,,,,,,,,,42.766462,-71.317611,,,
"Plymouth Public School/ Health office","Hope Garden!","41 Obery Street, Plymouth, MA 02360Ê, United States",,,,,,,,,,,,,,,,41.945288,-70.651993,,,
"GFWC Maine","Hope Garden!","7 Daisy Lane, SkowheganÊ, ME 04976, United States",,,,,,,,,,,,,,,,44.78449,-69.709112,,,
"WHITIN COMMUNITY CENTER","Hope Garden!","60 MAIN STREET, WhitinsvilleÊ, MA 01588Ê, United States",,,,,,,,,,,,,,,,42.11067,-71.667405,,,
"Old Orchard Beach Police Dept","Hope Garden!","16 E. Emerson Cummings Blvd, Old Orchard Beach, ME 04064, United States",,,,,,,,,,,,,,,,43.514337,-70.391824,,,
"King Middle School","Hope Garden!","92 Deering Avenue, Portland, ME 04102, United States",,,,,,,,,,,,,,,,43.657364,-70.274692,,,
"Deering High School","Hope Garden!","370 Stevens Ave, Portland, ME 04103, United States",,,,,,,,,,,,,,,,43.67154,-70.296303,,,
"Casco Bay High School","Hope Garden!","196 Allen Avenue, Portland, ME 04103, United States",,,,,,,,,,,,,,,,43.697336,-70.293943,,,
"Lyman Moore","Hope Garden!","171 Auburn Street, Portland, ME 04103, United States",,,,,,,,,,,,,,,,43.706075,-70.287565,,,
"Lincoln Middle School","Hope Garden!","522 Stevens Ave, Portland, ME 04103, United States",,,,,,,,,,,,,,,,43.676474,-70.294753,,,
"Reiche Elementary School","Hope Garden!","166 Brackett St , Portland, ME 04102, United States",,,,,,,,,,,,,,,,43.650472,-70.267361,,,
"Lyseth elementary School","Hope Garden!","175 Auburn St, Portland, ME 04103, United States",,,,,,,,,,,,,,,,43.707927,-70.28578,,,
"George Washington University","Hope Garden!","2350 H Street, NW, Washington , DC 20052, United States",,,,,,,,,,,,,,,,38.899331,-77.050945,,,
"Lively Middle School","Hope Garden!","201 E Mary St , Austin , TX 78704, United States",,,,,,,,,,,,,,,,30.244313,-97.750158,,,
"Be the Influence","Hope Garden!","8 School Street , WindhamÊ, ME 04062, United States",,,,,,,,,,,,,,,,43.79167,-70.409903,,,
"Harsha Jawale","Hope Garden!","50 E Central Ave, PaoliÊ, PA 19301Ê, United States",,,,,,,,,,,,,,,,40.045552,-75.476383,,,
"Reach 1 Teach 1 Love 1","Hope Garden!","6 Tokenel Road, WindhamÊ, NH 03087, United States",,,,,,,,,,,,,,,,42.766462,-71.317611,,,
"Pittsburgh Parks Conservancy at Frick Environmental Center","Hope Garden!","2005 Beechwood Boulevard, Pittsburgh, PA 15217, United States",,,,,,,,,,,,,,,,40.436508,-79.907627,,,
"Walworth Joint School District #1","Hope Garden!","121 Beloit Street, WalworthÊ, WI 53184Ê, United States",,,,,,,,,,,,,,,,42.530725,-88.6009,,,
"Westbrook High School","Hope Garden!","68 Brentwood St, PortlandÊ, MEÊ 04103, United States",,,,,,,,,,,,,,,,43.676026,-70.297715,,,
"Plymouth South Middle School","Hope Garden!","488 Long Pond Road, PlymouthÊ, MA 02360, United States",,,,,,,,,,,,,,,,41.885384,-70.614774,,,
"Cudahy Health Department","Hope Garden!","5050 S Lake Dr, CudahyÊ, WI 53110, United States",,,,,,,,,,,,,,,,42.952707,-87.849359,,,
"Albert D. Lawton School","Hope Garden!","104 Maple Street, Essex Junction, VT 05452, United States",,,,,,,,,,,,v1681404996/location_images/eh4lwqukeedhcsehsnhh.jpg,,,,44.486721,-73.098193,,,
"Lewisburg Area High School","Hope Garden!","545 Newman Road, LewisburgÊ, PA 17837Ê, United States",,,,,,,,,,,,,,,,40.982853,-76.898295,,,
"Hilliard Kiwanis Club","Hope Garden!","3477 Farley Drive, Hilliard, OH 43026, United States",,,,,,,,,,,,,,,,40.022729,-83.157375,,,
"Delran High School","Hope Garden!","50 Hartford Road, Delran, NJ 08075, United States",,,,,,,,,,,,,,,,40.01437,-74.942607,,,
"Spruce Elementary School","Hope Garden!","12 Tiger Drive, Jay, MEÊ 04329, United States",,,,,,,,,,,,,,,,44.496071242958,-70.202970686463,,,
"Richard Montgomery Highschool",,"250 Richard Montgomery Drive, Rockville, MD 20852",,,,,,,,,,,,v1681404605/location_images/qziw1qdzcxdiacbbfy9r.jpg,,,,39.078641,-77.146752,,,
"Queens, NY Garden",,"6081 70th Ave. Ridgewood, NY 11385",,,,,,,,,,,,,,,,40.702476,-73.896006,,,
Unum,,"Milton Court, Dorking RH4 3LZ, United Kingdom",,https://www.unum.co.uk/,,,,,,,,,,,,,,51.232198,-0.35227,,,
"Unum Życie TUiR S.A., Oddział Warszawa Centrum",,"Wspólna 70, 00-687 Warszawa, Poland",,https://www.unum.pl/,,,,,,,,,,,,,,52.2256731,21.0055413,,,
"Unum Życie TUiR S.A. Oddział Poznań",,"Pastelowa 12, 60-198 Poznań, Poland",,https://www.unum.pl/,,,,,,,,,,,,,,52.4082213,16.8674365,,,
"Open Sky Community Services",,"4 Mann St, Worcester, MA 01602","(508) 755-0333",https://www.openskycs.org/,,,,,,,,,,,,,,42.261389,-71.827612,,,
"University of New England - Biddeford Campus",,"11 Hills Beach Rd, Biddeford, ME 04005",,https://www.une.edu/,,,,,,,,,,,,,,43.45872,-70.389045,,,
"The Courtyard at St. Barnabas Community Resource Center",,"6006 West Girard Avenue Philadelphia, PA 19151",,,,,,,,,,,,,,,,39.969636,-75.239961,,,
"Maryville College",,"502 E Lamar Alexander Pkwy, Maryville, TN 37804",,www.maryvillecollege.edu,,,,,,,,,,,,,,35.752415,-83.963324,,,
"Sacopee Valley High School",,"115 S Hiram Rd, Hiram, ME 04041",,https://svhs.sad55.org/en-US,,,,,,,,,,,,,,43.810802,-70.869524,,,
"The University of Edinburgh",,"Old College, South Bridge, Edinburgh EH8 9YL, United Kingdom",,https://www.ed.ac.uk/,,,,,,,,,,,,,,55.947691,-3.187347,,,
"Windham Public Library",,"217 Windham Center Rd, Windham, ME 04062",,,bticoordinator@windhammaine.us,,,,,,,,,,,,,43.790695,-70.411577,,,
"Cos Cob School",,"300 E Putnam Ave, Cos Cob, CT 06807",,https://ccs.greenwichschools.org/,,,,,,,,,,,,,,41.0407685,-73.5980425,,,
"Maryville College",,"502 E Lamar Alexander Pkwy, Maryville, TN 37804",,https://www.maryvillecollege.edu/,,,,,,,,,,,,,,35.752415,-83.963324,,,
"Greenfield Hill Congregational Church",,"1045 Old Academy Rd, Fairfield, CT 06824",,https://greenfieldhillchurch.com/,,,,,,,,,,,,,,41.176116,-73.292932,,,
"Summerfield Schools",,"17555 Ida West Rd., Petersburg, MI 49270",,https://www.summerfield.k12.mi.us/,,,,,,,,,,,,,,41.905247,-83.702155,,,
"University of Farmington",,"147 Prescott St, Farmington, ME 04938",,https://www.umf.maine.edu/,,,,,,,,,,,,,,44.66247,-70.146106,,,
"BGCKV Chelsea Clubhouse",,"566 Togus Road, Chelsea, Maine 04330",207-215-4193,https://www.bgckv.org/,,,,,,,,,,,,,,44.2691427,-69.6987397,,,
"Maine School of Science and Mathematics",,"95 High St, Limestone, ME 04750",,https://www.mssm.org/,,,,,,,,,,,,,,46.907,-67.829806,,,
"Livesey Park",,"Parker St. Fairhaven, Massachusetts 02719",,https://fairhaventours.com/,,,,,,,,,,,,,,41.6585236,-70.9051285,,,
"Embry-Riddle Aeronautical University ",,"3700 Willow Creek Rd., Prescott AZ, 86301",,https://erau.edu/,,,,,,,,,,,,,,34.616459810462,-112.45053290969,,,
"Lycoming County United Way",,"1 W 3rd St., Williamsport, PA 17701",,www.lcuw.org,,,,,,,,,,,,,,41.240789,-77.00111,,,
"BGCKV Gardiner Clubhouse",,"14 Pray St, Gardiner, ME 04345","(207) 582-8458",https://www.bgckv.org/,,,,,,,,,,,,,,44.230068,-69.784299,,,
"BGCKV Palermo Clubhouse",,"501 ME-3, Palermo Maine 04354",207-592-1233,https://www.bgckv.org/,,,,,,,,,,,,,,44.3885416,-69.4674381,,,
"Gardiner Area High School",,"40 W Hill Rd, Gardiner, ME 04345","(207) 582-3150",https://www.msad11.org/o/gahs,,,,,,,,,,,,,,44.22765,-69.788899,,,
"Windsor Elementary School",,"366 Ridge Rd, Windsor, ME 04363","(207) 445-2356",https://www.svrsu.org/o/windsor/news?page_no=4,,,,,,,,,,,,,,44.301381,-69.585495,,,
"Midcoast Youth Center and Skatepark",,"4 Old Brunswick Rd, Bath, ME 04530","(207) 443-8750",https://www.midcoastyouth.org/,,,,,,,,,,,,,,43.918453,-69.827606,,,
"Gardiner Main Street",,"192 Water St Unit 3, Gardiner, ME 04345","(207) 582-3100",,,,,,,,,,,,,,,44.229357,-69.771574,,,
"Isthmus Montessori Academy",,"1802 Pankratz St, Madison, WI 53704",,http://isthmusmontessoriacademy.org/programs/studentservices/,,,,,,,,,,,,,,43.1191,-89.353924,,,
